[{"OBJECT_NAME":"STARLINK-32459","OBJECT_ID":"2024-196J","EPOCH":"2026-03-09T11:08:32.486496","MEAN_MOTION":15.30222698,"ECCENTRICITY":8.076e-5,"INCLINATION":53.1602,"RA_OF_ASC_NODE":102.2746,"ARG_OF_PERICENTER":100.2867,"MEAN_ANOMALY":259.8225,"EPHEMERIS_TYPE":0,"CLASSIFICATION_TYPE":"U","NORAD_CAT_ID":61715,"ELEMENT_SET_NO":999,"REV_AT_EPOCH":7712,"BSTAR":-0.00023248969,"MEAN_MOTION_DOT":-7.243e-5,"MEAN_MOTION_DDOT":0},{"OBJECT_NAME":"COSMOS 2535 DEB","OBJECT_ID":"2019-039M","EPOCH":"2026-03-08T03:25:35.903424","MEAN_MOTION":15.28322551,"ECCENTRICITY":0.0014917,"INCLINATION":97.5619,"RA_OF_ASC_NODE":139.2722,"ARG_OF_PERICENTER":329.0964,"MEAN_ANOMALY":30.9396,"EPHEMERIS_TYPE":0,"CLASSIFICATION_TYPE":"U","NORAD_CAT_ID":44641,"ELEMENT_SET_NO":999,"REV_AT_EPOCH":35167,"BSTAR":0.0011539757,"MEAN_MOTION_DOT":0.0003196,"MEAN_MOTION_DDOT":0}]
